P/2011 W1 (PANSTARRS),e,3.7164,161.7360,283.1996,4.676980,0.0974442,0.28804900,157.8002,07/18.0/2026,2000,g 11.5,4.0
# From MPC194126
P/2011 Y2 (Boattini),e,6.3942,309.2709,132.1546,6.223316,0.0634850,0.71106437,331.9663,07/18.0/2026,2000,g 15.0,4.0
# From MPC194126
C/2012 A1 (PANSTARRS),e,121.0152,277.8604,191.9878,14209,0.0000006,0.99946333,0.0000,11/28.9526/2013,2000,g  6.0,4.0
# From unp
P/2012 A3 (SOHO),e,11.0130,174.5491,219.8354,2.584406,0.2372264,0.76992403,176.6048,07/18.0/2026,2000,g 17.0,4.0
# From MPC194127
P/2012 B1 (PANSTARRS),e,7.6053,36.2097,161.8380,6.546054,0.0588484,0.41075531,281.8714,07/18.0/2026,2000,g  9.0,4.0
# From MPC194127
P/2012 F2 (PANSTARRS),e,14.6901,226.7585,33.3641,6.351992,0.0615657,0.54227281,300.1017,07/18.0/2026,2000,g 12.0,4.0
# From MPC194128
P/2012 G1 (PANSTARRS),e,12.1690,283.2248,266.0267,4.160880,0.1161251,0.33014803,245.8831,07/18.0/2026,2000,g 15.0,4.0
# From MPC194128
C/2012 K1 (PANSTARRS),e,142.6779,317.7936,203.2102,13663,0.0000006,0.99992189,0.0000,08/22.6815/2014,2000,g  5.6,3.2
# From MPEC 2026-O04
P/2012 K3 (Gibbs),e,13.1788,125.8015,172.1002,3.634381,0.1422520,0.42185459,0.3028,07/18.0/2026,2000,g 15.0,4.0
# From MPC194128
C/2012 K8 (Lemmon),h,08/20.2119/2014,105.9521,312.7242,75.8644,1.000791,6.457715,2000,6.0,4.0
# From MPC194129
C/2012 LP26 (Palomar),h,08/12.1367/2015,25.3617,154.1134,145.2507,1.001086,6.565333,2000,6.5,4.0
# From MPC194129
P/2012 O1 (McNaught),e,7.4228,91.8929,238.3309,3.543170,0.1477801,0.59351202,38.1308,07/18.0/2026,2000,g 17.5,4.0
# From MPC194129
P/2012 O2 (McNaught),e,24.4473,120.6530,183.3919,3.630677,0.1424697,0.53129418,15.3355,07/18.0/2026,2000,g 17.0,4.0
# From MPC194129
C/2012 Q1 (Kowalski),e,45.1757,184.4467,139.4773,26.19368,0.0073521,0.63597158,38.8094,07/18.0/2026,2000,g  4.0,4.0
# From MPC194129
P/2012 T3 (PANSTARRS),e,9.5202,114.1401,196.8200,6.026671,0.0666174,0.60517738,346.1940,07/18.0/2026,2000,g 15.0,4.0
# From MPC194130
C/2012 X1 (LINEAR),e,44.2686,113.4763,131.9825,158.2842,0.0004949,0.98983364,0.0000,02/15.9381/2014,2000,g  4.8,3.6
# From MPC194130
C/2013 A1 (SidingSpring),h,10/27.1266/2014,128.6865,301.1843,2.5465,1.000107,1.392019,2000,8.2,2.4
# From MPC194131
C/2013 C2 (Tenagra),e,21.3687,247.5634,308.7481,15.87567,0.0155814,0.42625312,61.9190,07/18.0/2026,2000,g  4.0,4.0
# From MPEC 2013-Y32
P/2013 CU129 (PANSTARRS),e,11.8097,45.5813,213.0238,2.905115,0.1990486,0.71529801,231.8885,07/18.0/2026,2000,g 18.0,2.0
# From MPC194131
C/2013 E1 (McNaught),e,158.7085,133.8750,311.3167,6413,0.0000019,0.99878829,0.0000,06/09.0434/2013,2000,g  5.5,4.0
# From MPC194131
P/2013 G1 (Kowalski),e,5.4558,221.2571,51.2954,6.912065,0.0542366,0.51043286,251.1457,07/18.0/2026,2000,g 11.0,4.0
# From MPC194132
P/2013 J2 (McNaught),e,15.4891,289.2261,37.8540,6.234746,0.0633105,0.65565233,298.6151,07/18.0/2026,2000,g 13.0,4.0
# From MPC194133
C/2013 P3 (Palomar),h,11/24.9305/2014,93.8416,177.3218,177.3947,1.002020,8.684763,2000,5.5,4.0
# From MPC194133
C/2013 P4 (PANSTARRS),e,4.2603,256.3883,114.0049,14.78228,0.0173417,0.59363015,75.6452,07/18.0/2026,2000,g  7.5,4.0
# From MPC194134
P/2013 R3 (Catalina-PANSTARRS),e,0.8670,341.6496,11.3627,3.027967,0.1870584,0.27901128,158.7376,07/18.0/2026,2000,g 14.0,4.0
# From MPC194134
P/2013 R3-A,e,0.8659,341.5964,11.4488,3.027719,0.1870814,0.27893578,158.8283,07/18.0/2026,2000,g 14.3,4.0
# From MPC194134
P/2013 R3-B,e,0.8677,341.6639,11.3956,3.027965,0.1870586,0.27895352,158.7140,07/18.0/2026,2000,g 14.5,4.0
# From MPC194134
P/2013 T1 (PANSTARRS),e,24.2671,10.0342,346.1826,5.857743,0.0695198,0.62337526,328.5397,07/18.0/2026,2000,g 16.5,4.0
# From MPC194134
P/2013 T2 (Schwartz),e,9.4472,0.7758,345.5784,3.493265,0.1509582,0.50004177,5.5388,07/18.0/2026,2000,g 16.0,4.0
# From MPC194135
C/2013 US10 (Catalina),h,11/11.8626/2015,148.9369,186.1371,340.1929,1.000156,0.815318,2000,4.4,4.0
# From MPC194135
C/2013 V4 (Catalina),h,10/10.4764/2015,67.9527,55.5469,40.4852,1.000563,5.186901,2000,6.0,4.0
# From MPC194135
P/2013 W1 (PANSTARRS),e,4.7009,117.8445,1.2792,3.483220,0.1516117,0.59394020,323.4373,07/18.0/2026,2000,g 17.5,4.0
# From MPC194135
C/2013 W2 (PANSTARRS),e,4.8500,178.2698,303.9141,9.615058,0.0330580,0.54783493,140.4039,07/18.0/2026,2000,g 13.5,2.0
# From MPC194135
C/2013 X1 (PANSTARRS),h,04/24.3772/2016,163.0537,132.0356,165.4759,1.000903,1.305459,2000,10.5,2.0
# From MPC194136
P/2013 YG46 (Spacewatch),e,7.0377,35.9545,256.1944,3.239830,0.1690133,0.47990374,211.1262,07/18.0/2026,2000,g 10.0,4.0
# From MPC194136
P/2014 A2 (Hill),e,24.5642,106.6409,356.2684,5.916741,0.0684826,0.64662647,318.5408,07/18.0/2026,2000,g 15.0,4.0
# From MPC194136
C/2014 A4 (SONEAR),h,09/05.4179/2015,121.3419,29.6796,356.9344,1.000005,4.207965,2000,6.0,4.0
# From MPC194136
C/2014 B1 (Schwartz),h,09/10.3816/2017,28.3823,161.2818,345.7925,1.000866,9.539430,2000,4.0,4.0
# From MPC194136
P/2014 C1 (TOTAS),e,3.1903,39.4670,187.8344,4.045846,0.1211128,0.33846656,273.2372,07/18.0/2026,2000,g 15.5,4.0
# From MPC194137
C/2014 F3 (Sheppard-Trujillo),e,6.5207,325.9906,5.0609,14.35304,0.0181254,0.60065606,34.0627,07/18.0/2026,2000,g  6.0,4.0
# From MPC194137
P/2014 L2 (NEOWISE),e,5.1857,149.3010,182.6625,6.317161,0.0620756,0.64580737,272.5628,07/18.0/2026,2000,g 12.0,4.0
# From MPC194138
C/2014 M2 (Christensen),e,32.3402,245.3728,40.8500,1285,0.0000214,0.99460427,0.0000,07/13.2049/2014,2000,g  6.0,4.0
# From MPC194138
P/2014 O3 (PANSTARRS),e,7.7889,87.6233,204.4719,7.589988,0.0471349,0.38249695,212.0267,07/18.0/2026,2000,g 10.5,4.0
# From MPC194138
C/2014 OE4 (PANSTARRS),e,81.2832,240.4518,65.8732,21060,0.0000003,0.99970242,0.0000,12/05.2340/2016,2000,g 11.0,2.0
# From MPC191585
C/2014 OG392 (PANSTARRS),e,9.0317,145.8331,255.5840,12.24973,0.0229887,0.18426744,37.9082,07/18.0/2026,2000,g  6.0,4.0
# From MPC194139
C/2014 R3 (PANSTARRS),h,08/08.6110/2016,90.7583,333.9814,113.3664,1.000039,7.265204,2000,6.5,4.0
# From MPC194139
P/2014 U4 (PANSTARRS),e,6.4206,11.8856,347.8363,3.513671,0.1496451,0.46340328,296.7105,07/18.0/2026,2000,g 18.0,4.0
# From MPEC 2026-O09
C/2014 UN271 (Bernardinelli-Bernstein),h,01/16.5102/2031,95.4461,190.0010,326.0887,1.004142,10.959731,2000,2.5,3.2
# From MPC194139
P/2014 V1 (PANSTARRS),e,22.4894,166.1892,177.9753,5.363437,0.0793486,0.52426525,332.5218,07/18.0/2026,2000,g 14.0,4.0
# From MPC194140
P/2014 W4 (PANSTARRS),e,15.2787,33.3037,67.8184,6.578015,0.0584200,0.35520461,224.3228,07/18.0/2026,2000,g 11.0,4.0
# From MPC194141
P/2015 B1 (PANSTARRS),e,18.1015,352.8350,188.6574,9.469474,0.0338232,0.36757274,134.0980,07/18.0/2026,2000,g  8.5,4.0
# From MPC194142
C/2015 D2 (PANSTARRS),e,31.9083,162.6806,292.4258,12.80358,0.0215133,0.56177533,100.4390,07/18.0/2026,2000,g  8.0,4.0
# From MPC194142
C/2015 D3 (PANSTARRS),e,128.5738,156.8757,2.6633,17127,0.0000004,0.99952470,0.0000,04/25.2282/2016,2000,g  5.5,4.0
# From MPC194142
P/2015 D5 (Kowalski),e,20.5410,74.0694,39.7049,8.944213,0.0368460,0.49198143,164.9888,07/18.0/2026,2000,g  9.0,4.0
# From MPC194142
P/2015 D6 (Lemmon-PANSTARRS),e,20.3918,45.1396,126.1184,7.116287,0.0519187,0.36325810,209.2932,07/18.0/2026,2000,g 10.5,4.0
# From MPC194142
C/2015 ER61 (PANSTARRS),e,6.3143,235.0058,68.7051,458.4902,0.0001004,0.99768258,0.0000,05/04.7479/2017,2000,g 11.0,2.0
# From MPC194144
P/2015 M2 (PANSTARRS),e,3.9675,86.5667,225.5141,7.255319,0.0504335,0.17792966,200.9287,07/18.0/2026,2000,g  8.5,4.0
# From MPEC 2021-P47
C/2015 O1 (PANSTARRS),h,02/17.3057/2018,27.1034,299.7014,89.8733,1.001653,3.750757,2000,6.5,4.0
# From MPC194144
P/2015 PD229 (Cameron-ISON),e,2.0188,342.7079,352.6049,7.211744,0.0508913,0.32444760,203.7149,07/18.0/2026,2000,g 11.5,2.0
# From MPC194144
P/2015 R2 (PANSTARRS),e,15.5700,168.5594,149.7855,4.494649,0.1034333,0.45241813,58.0544,07/18.0/2026,2000,g 14.5,4.0
# From MPC194145
C/2015 T5 (Sheppard-Tholen),e,11.0172,311.1715,62.2816,28.40177,0.0065116,0.66939331,24.8970,07/18.0/2026,2000,g  7.5,4.0
# From MPC194145
P/2015 TP200 (LINEAR),e,8.7720,6.8523,82.6987,7.264577,0.0503371,0.53706254,178.3088,07/18.0/2026,2000,g 11.0,4.0
# From MPC194145
C/2015 V1 (PANSTARRS),e,139.1695,197.2950,179.9613,34197,0.0000002,0.99987463,0.0000,12/19.3791/2017,2000,g  6.5,4.0
# From MPEC 2026-L50
C/2015 V2 (Johnson),h,06/09.4388/2017,49.7755,70.0611,164.6821,1.000825,1.631347,2000,5.0,4.0
# From MPC194145
C/2015 V4 (PANSTARRS),e,60.7555,179.7890,306.8060,18.44727,0.0124396,0.70547172,44.8817,07/18.0/2026,2000,g  8.5,4.0
# From MPC194146
C/2015 XY1 (Lemmon),h,04/27.5127/2018,148.8559,281.5102,196.3678,1.000528,7.959090,2000,5.5,4.0
# From MPC194146
P/2015 X3 (PANSTARRS),e,24.4207,77.2461,307.0096,4.993987,0.0883147,0.43945681,351.3636,07/18.0/2026,2000,g 15.0,4.0
# From MPC194146
C/2015 X5 (PANSTARRS),h,12/28.0296/2017,124.3814,122.1940,27.6985,1.000062,6.820848,2000,7.5,4.0
# From MPC194146
P/2015 X6 (PANSTARRS),e,4.5666,106.9216,329.4567,2.751339,0.2159673,0.17398232,93.5740,07/18.0/2026,2000,g 16.0,4.0
# From MPC194147
C/2016 A1 (PANSTARRS),e,121.2877,128.0180,10.1880,7985,0.0000014,0.99933128,0.0000,11/19.5907/2017,2000,g  6.0,4.0
# From MPC194147
P/2016 A3 (PANSTARRS),e,8.5284,187.0920,340.8426,7.864734,0.0446867,0.38768718,150.4449,07/18.0/2026,2000,g 10.0,4.0
# From MPC194147
P/2016 A7 (PANSTARRS),e,16.1073,219.7515,353.2635,5.082428,0.0860196,0.56841632,332.9784,07/18.0/2026,2000,g 16.0,4.0
# From MPC194147
C/2016 C1 (PANSTARRS),h,02/18.7549/2016,56.1992,181.6966,328.5665,1.001806,8.432469,2000,5.5,4.0
# From MPC194147
C/2016 E1 (PANSTARRS),h,05/26.9304/2017,131.8854,233.1279,47.2306,1.001262,8.163738,2000,6.5,4.0
# From MPC194148
P/2016 G1 (PANSTARRS),e,10.9696,204.0047,111.1128,2.583535,0.2373464,0.20977424,101.5537,07/18.0/2026,2000,g 14.0,4.0
# From MPC194148
C/2016 M1 (PANSTARRS),e,90.7563,92.2945,209.8244,1937,0.0000116,0.99885837,0.0000,08/07.3278/2018,2000,g  5.0,4.0
# From MPC194148
C/2016 N6 (PANSTARRS),e,105.9432,298.7231,162.7060,1044,0.0000292,0.99743626,0.0000,07/16.0242/2018,2000,g  7.0,4.0
# From MPC194148
